[{"OBJECT_NAME":"STARLINK-30151","OBJECT_ID":"2023-079E","EPOCH":"2026-03-09T22:00:01.999584","MEAN_MOTION":15.17711074,"ECCENTRICITY":0.00012075,"INCLINATION":43,"RA_OF_ASC_NODE":105.4581,"ARG_OF_PERICENTER":287.8045,"MEAN_ANOMALY":174.4924,"EPHEMERIS_TYPE":0,"CLASSIFICATION_TYPE":"U","NORAD_CAT_ID":56827,"ELEMENT_SET_NO":999,"REV_AT_EPOCH":578,"BSTAR":0.055737382,"MEAN_MOTION_DOT":0.01254348,"MEAN_MOTION_DDOT":0},{"OBJECT_NAME":"OBJECT AJ","OBJECT_ID":"2023-085AJ","EPOCH":"2026-03-09T21:40:57.336960","MEAN_MOTION":15.22482723,"ECCENTRICITY":0.0009664,"INCLINATION":97.4789,"RA_OF_ASC_NODE":174.9935,"ARG_OF_PERICENTER":71.8929,"MEAN_ANOMALY":288.3359,"EPHEMERIS_TYPE":0,"CLASSIFICATION_TYPE":"U","NORAD_CAT_ID":57036,"ELEMENT_SET_NO":999,"REV_AT_EPOCH":15122,"BSTAR":0.00051608664,"MEAN_MOTION_DOT":0.00011905,"MEAN_MOTION_DDOT":0}]
